ONEWEB-0321             
1 49191U 21083F   25227.59802349  .00000026  00000+0  32766-4 0  9991
2 49191  87.9289 335.3309 0001726  89.8858 270.2473 13.20772806196497
ONEWEB-0322             
1 49192U 21083G   25227.45472435 -.00000328  00000+0 -93257-3 0  9994
2 49192  87.8988  20.9940 0001628  81.8138 278.3176 13.13469619190787
ONEWEB-0324             
1 49193U 21083H   25227.50522193  .00000070  00000+0  14571-3 0  9992
2 49193  87.9140  36.1589 0001669  93.7262 266.4061 13.18687073189715
ONEWEB-0325             
1 49194U 21083J   25227.50852721  .00000010  00000+0 -74157-5 0  9999
2 49194  87.9141  36.1756 0001814  88.9881 271.1459 13.18685182189722
ONEWEB-0326             
1 49195U 21083K   25227.52350659  .00000051  00000+0  97517-4 0  9993
2 49195  87.9138  36.1613 0002108 101.0053 259.1316 13.18685145189712
ONEWEB-0327             
1 49196U 21083L   25227.52322584  .00000012  00000+0 -21823-5 0  9996
2 49196  87.9135  36.1894 0002074  97.8224 262.3143 13.18686626189736
ONEWEB-0328             
1 49197U 21083M   25227.44456244 -.00000110  00000+0 -33668-3 0  9997
2 49197  87.8988  20.9350 0001667  97.1893 262.9426 13.13469223190764
ONEWEB-0331             
1 49198U 21083N   25227.51677542  .00000070  00000+0  14476-3 0  9991
2 49198  87.9136  36.1550 0001883 103.3641 256.7701 13.18685342189721
ONEWEB-0333             
1 49199U 21083P   25227.43948300  .00000019  00000+0  15993-4 0  9995
2 49199  87.8978  21.0064 0001825  93.0747 267.0591 13.13469518190775
ONEWEB-0334             
1 49200U 21083Q   25227.53963067  .00000025  00000+0  30414-4 0  9998
2 49200  87.9293 335.3757 0002162  71.0017 289.1351 13.20772886196442
ONEWEB-0335             
1 49201U 21083R   25227.51058153  .00000206  00000+0  52824-3 0  9997
2 49201  87.8978  20.9790 0001880 100.0437 260.0904 13.13469453190790
ONEWEB-0336             
1 49202U 21083S   25227.48180332  .00000253  00000+0  65654-3 0  9996
2 49202  87.8981  20.9787 0001924  93.8982 266.2367 13.13470182190785
ONEWEB-0337             
1 49203U 21083T   25227.49181905  .00000368  00000+0  97272-3 0  9993
2 49203  87.8992  20.9779 0001675 100.8011 259.3307 13.13470407190781
ONEWEB-0338             
1 49204U 21083U   25227.59015699  .00000065  00000+0  12748-3 0  9990
2 49204  87.9302 335.3615 0001848  88.8398 271.2947 13.20772263196473
ONEWEB-0339             
1 49205U 21083V   25227.50043008  .00000355  00000+0  93619-3 0  9995
2 49205  87.8985  20.9613 0001641  92.8319 267.2998 13.13469716190769
ONEWEB-0340             
1 49206U 21083W   25227.50358353  .00000083  00000+0  17778-3 0  9998
2 49206  87.9138  36.1615 0001850  94.2150 265.9193 13.18686436189689
ONEWEB-0341             
1 49207U 21083X   25227.51016991 -.00000025  00000+0 -96420-4 0  9999
2 49207  87.9141  36.1716 0001306 101.0026 259.1253 13.18685345189704
