[{"OBJECT_NAME":"ONEWEB-0321","OBJECT_ID":"2021-083F","EPOCH":"2025-08-15T14:21:09.229536","MEAN_MOTION":13.20772806,"ECCENTRICITY":0.0001726,"INCLINATION":87.9289,"RA_OF_ASC_NODE":335.3309,"ARG_OF_PERICENTER":89.8858,"MEAN_ANOMALY":270.2473,"EPHEMERIS_TYPE":0,"CLASSIFICATION_TYPE":"U","NORAD_CAT_ID":49191,"ELEMENT_SET_NO":999,"REV_AT_EPOCH":19649,"BSTAR":3.2766e-5,"MEAN_MOTION_DOT":2.6e-7,"MEAN_MOTION_DDOT":0},{"OBJECT_NAME":"ONEWEB-0322","OBJECT_ID":"2021-083G","EPOCH":"2025-08-15T10:54:48.183840","MEAN_MOTION":13.13469619,"ECCENTRICITY":0.0001628,"INCLINATION":87.8988,"RA_OF_ASC_NODE":20.994,"ARG_OF_PERICENTER":81.8138,"MEAN_ANOMALY":278.3176,"EPHEMERIS_TYPE":0,"CLASSIFICATION_TYPE":"U","NORAD_CAT_ID":49192,"ELEMENT_SET_NO":999,"REV_AT_EPOCH":19078,"BSTAR":-0.00093257,"MEAN_MOTION_DOT":-3.28e-6,"MEAN_MOTION_DDOT":0},{"OBJECT_NAME":"ONEWEB-0324","OBJECT_ID":"2021-083H","EPOCH":"2025-08-15T12:07:31.174752","MEAN_MOTION":13.18687073,"ECCENTRICITY":0.0001669,"INCLINATION":87.914,"RA_OF_ASC_NODE":36.1589,"ARG_OF_PERICENTER":93.7262,"MEAN_ANOMALY":266.4061,"EPHEMERIS_TYPE":0,"CLASSIFICATION_TYPE":"U","NORAD_CAT_ID":49193,"ELEMENT_SET_NO":999,"REV_AT_EPOCH":18971,"BSTAR":0.00014571,"MEAN_MOTION_DOT":7.0e-7,"MEAN_MOTION_DDOT":0},{"OBJECT_NAME":"ONEWEB-0325","OBJECT_ID":"2021-083J","EPOCH":"2025-08-15T12:12:16.750944","MEAN_MOTION":13.18685182,"ECCENTRICITY":0.0001814,"INCLINATION":87.9141,"RA_OF_ASC_NODE":36.1756,"ARG_OF_PERICENTER":88.9881,"MEAN_ANOMALY":271.1459,"EPHEMERIS_TYPE":0,"CLASSIFICATION_TYPE":"U","NORAD_CAT_ID":49194,"ELEMENT_SET_NO":999,"REV_AT_EPOCH":18972,"BSTAR":-7.4157e-6,"MEAN_MOTION_DOT":1.0e-7,"MEAN_MOTION_DDOT":0},{"OBJECT_NAME":"ONEWEB-0326","OBJECT_ID":"2021-083K","EPOCH":"2025-08-15T12:33:50.969376","MEAN_MOTION":13.18685145,"ECCENTRICITY":0.0002108,"INCLINATION":87.9138,"RA_OF_ASC_NODE":36.1613,"ARG_OF_PERICENTER":101.0053,"MEAN_ANOMALY":259.1316,"EPHEMERIS_TYPE":0,"CLASSIFICATION_TYPE":"U","NORAD_CAT_ID":49195,"ELEMENT_SET_NO":999,"REV_AT_EPOCH":18971,"BSTAR":9.7517e-5,"MEAN_MOTION_DOT":5.1e-7,"MEAN_MOTION_DDOT":0},{"OBJECT_NAME":"ONEWEB-0327","OBJECT_ID":"2021-083L","EPOCH":"2025-08-15T12:33:26.712576","MEAN_MOTION":13.18686626,"ECCENTRICITY":0.0002074,"INCLINATION":87.9135,"RA_OF_ASC_NODE":36.1894,"ARG_OF_PERICENTER":97.8224,"MEAN_ANOMALY":262.3143,"EPHEMERIS_TYPE":0,"CLASSIFICATION_TYPE":"U","NORAD_CAT_ID":49196,"ELEMENT_SET_NO":999,"REV_AT_EPOCH":18973,"BSTAR":-2.1823e-6,"MEAN_MOTION_DOT":1.2e-7,"MEAN_MOTION_DDOT":0},{"OBJECT_NAME":"ONEWEB-0328","OBJECT_ID":"2021-083M","EPOCH":"2025-08-15T10:40:10.194816","MEAN_MOTION":13.13469223,"ECCENTRICITY":0.0001667,"INCLINATION":87.8988,"RA_OF_ASC_NODE":20.935,"ARG_OF_PERICENTER":97.1893,"MEAN_ANOMALY":262.9426,"EPHEMERIS_TYPE":0,"CLASSIFICATION_TYPE":"U","NORAD_CAT_ID":49197,"ELEMENT_SET_NO":999,"REV_AT_EPOCH":19076,"BSTAR":-0.00033668,"MEAN_MOTION_DOT":-1.1e-6,"MEAN_MOTION_DDOT":0},{"OBJECT_NAME":"ONEWEB-0331","OBJECT_ID":"2021-083N","EPOCH":"2025-08-15T12:24:09.396288","MEAN_MOTION":13.18685342,"ECCENTRICITY":0.0001883,"INCLINATION":87.9136,"RA_OF_ASC_NODE":36.155,"ARG_OF_PERICENTER":103.3641,"MEAN_ANOMALY":256.7701,"EPHEMERIS_TYPE":0,"CLASSIFICATION_TYPE":"U","NORAD_CAT_ID":49198,"ELEMENT_SET_NO":999,"REV_AT_EPOCH":18972,"BSTAR":0.00014476,"MEAN_MOTION_DOT":7.0e-7,"MEAN_MOTION_DDOT":0},{"OBJECT_NAME":"ONEWEB-0333","OBJECT_ID":"2021-083P","EPOCH":"2025-08-15T10:32:51.331200","MEAN_MOTION":13.13469518,"ECCENTRICITY":0.0001825,"INCLINATION":87.8978,"RA_OF_ASC_NODE":21.0064,"ARG_OF_PERICENTER":93.0747,"MEAN_ANOMALY":267.0591,"EPHEMERIS_TYPE":0,"CLASSIFICATION_TYPE":"U","NORAD_CAT_ID":49199,"ELEMENT_SET_NO":999,"REV_AT_EPOCH":19077,"BSTAR":1.5993e-5,"MEAN_MOTION_DOT":1.9e-7,"MEAN_MOTION_DDOT":0},{"OBJECT_NAME":"ONEWEB-0334","OBJECT_ID":"2021-083Q","EPOCH":"2025-08-15T12:57:04.089888","MEAN_MOTION":13.20772886,"ECCENTRICITY":0.0002162,"INCLINATION":87.9293,"RA_OF_ASC_NODE":335.3757,"ARG_OF_PERICENTER":71.0017,"MEAN_ANOMALY":289.1351,"EPHEMERIS_TYPE":0,"CLASSIFICATION_TYPE":"U","NORAD_CAT_ID":49200,"ELEMENT_SET_NO":999,"REV_AT_EPOCH":19644,"BSTAR":3.0414e-5,"MEAN_MOTION_DOT":2.5e-7,"MEAN_MOTION_DDOT":0},{"OBJECT_NAME":"ONEWEB-0335","OBJECT_ID":"2021-083R","EPOCH":"2025-08-15T12:15:14.244192","MEAN_MOTION":13.13469453,"ECCENTRICITY":0.000188,"INCLINATION":87.8978,"RA_OF_ASC_NODE":20.979,"ARG_OF_PERICENTER":100.0437,"MEAN_ANOMALY":260.0904,"EPHEMERIS_TYPE":0,"CLASSIFICATION_TYPE":"U","NORAD_CAT_ID":49201,"ELEMENT_SET_NO":999,"REV_AT_EPOCH":19079,"BSTAR":0.00052824,"MEAN_MOTION_DOT":2.06e-6,"MEAN_MOTION_DDOT":0},{"OBJECT_NAME":"ONEWEB-0336","OBJECT_ID":"2021-083S","EPOCH":"2025-08-15T11:33:47.806848","MEAN_MOTION":13.13470182,"ECCENTRICITY":0.0001924,"INCLINATION":87.8981,"RA_OF_ASC_NODE":20.9787,"ARG_OF_PERICENTER":93.8982,"MEAN_ANOMALY":266.2367,"EPHEMERIS_TYPE":0,"CLASSIFICATION_TYPE":"U","NORAD_CAT_ID":49202,"ELEMENT_SET_NO":999,"REV_AT_EPOCH":19078,"BSTAR":0.00065654,"MEAN_MOTION_DOT":2.53e-6,"MEAN_MOTION_DDOT":0},{"OBJECT_NAME":"ONEWEB-0337","OBJECT_ID":"2021-083T","EPOCH":"2025-08-15T11:48:13.165920","MEAN_MOTION":13.13470407,"ECCENTRICITY":0.0001675,"INCLINATION":87.8992,"RA_OF_ASC_NODE":20.9779,"ARG_OF_PERICENTER":100.8011,"MEAN_ANOMALY":259.3307,"EPHEMERIS_TYPE":0,"CLASSIFICATION_TYPE":"U","NORAD_CAT_ID":49203,"ELEMENT_SET_NO":999,"REV_AT_EPOCH":19078,"BSTAR":0.00097272,"MEAN_MOTION_DOT":3.68e-6,"MEAN_MOTION_DDOT":0},{"OBJECT_NAME":"ONEWEB-0338","OBJECT_ID":"2021-083U","EPOCH":"2025-08-15T14:09:49.563936","MEAN_MOTION":13.20772263,"ECCENTRICITY":0.0001848,"INCLINATION":87.9302,"RA_OF_ASC_NODE":335.3615,"ARG_OF_PERICENTER":88.8398,"MEAN_ANOMALY":271.2947,"EPHEMERIS_TYPE":0,"CLASSIFICATION_TYPE":"U","NORAD_CAT_ID":49204,"ELEMENT_SET_NO":999,"REV_AT_EPOCH":19647,"BSTAR":0.00012748,"MEAN_MOTION_DOT":6.5e-7,"MEAN_MOTION_DDOT":0},{"OBJECT_NAME":"ONEWEB-0339","OBJECT_ID":"2021-083V","EPOCH":"2025-08-15T12:00:37.158912","MEAN_MOTION":13.13469716,"ECCENTRICITY":0.0001641,"INCLINATION":87.8985,"RA_OF_ASC_NODE":20.9613,"ARG_OF_PERICENTER":92.8319,"MEAN_ANOMALY":267.2998,"EPHEMERIS_TYPE":0,"CLASSIFICATION_TYPE":"U","NORAD_CAT_ID":49205,"ELEMENT_SET_NO":999,"REV_AT_EPOCH":19076,"BSTAR":0.00093619,"MEAN_MOTION_DOT":3.55e-6,"MEAN_MOTION_DDOT":0},{"OBJECT_NAME":"ONEWEB-0340","OBJECT_ID":"2021-083W","EPOCH":"2025-08-15T12:05:09.616992","MEAN_MOTION":13.18686436,"ECCENTRICITY":0.000185,"INCLINATION":87.9138,"RA_OF_ASC_NODE":36.1615,"ARG_OF_PERICENTER":94.215,"MEAN_ANOMALY":265.9193,"EPHEMERIS_TYPE":0,"CLASSIFICATION_TYPE":"U","NORAD_CAT_ID":49206,"ELEMENT_SET_NO":999,"REV_AT_EPOCH":18968,"BSTAR":0.00017778,"MEAN_MOTION_DOT":8.3e-7,"MEAN_MOTION_DDOT":0},{"OBJECT_NAME":"ONEWEB-0341","OBJECT_ID":"2021-083X","EPOCH":"2025-08-15T12:14:38.680224","MEAN_MOTION":13.18685345,"ECCENTRICITY":0.0001306,"INCLINATION":87.9141,"RA_OF_ASC_NODE":36.1716,"ARG_OF_PERICENTER":101.0026,"MEAN_ANOMALY":259.1253,"EPHEMERIS_TYPE":0,"CLASSIFICATION_TYPE":"U","NORAD_CAT_ID":49207,"ELEMENT_SET_NO":999,"REV_AT_EPOCH":18970,"BSTAR":-9.642e-5,"MEAN_MOTION_DOT":-2.5e-7,"MEAN_MOTION_DDOT":0}]
